BEIJING 1               
1 28890U 05043A   24351.13853094  .00000924  00000+0  19010-3 0  9995
2 28890  98.2211 112.9725 0014492 192.4041 167.6806 14.62833655 20481
HUANJING 1A (HJ-1A)     
1 33320U 08041A   24351.15109652  .00003087  00000+0  39831-3 0  9992
2 33320  97.6341 349.4003 0020866 132.9952 227.3015 14.81541594877283
HUANJING 1B (HJ-1B)     
1 33321U 08041B   24351.14296762  .00002188  00000+0  28286-3 0  9994
2 33321  97.6259 353.8158 0037551 178.4487 181.6850 14.81405090877301
YAOGAN-4                
1 33446U 08061A   24351.04211108  .00002609  00000+0  34171-3 0  9992
2 33446  97.8940 279.7221 0016214  57.9046 302.3738 14.81135023864466
DEIMOS-1                
1 35681U 09041A   24351.09857323  .00001479  00000+0  23176-3 0  9991
2 35681  97.6837 163.4499 0002175 124.3047 235.8368 14.74065846826104
UK-DMC 2                
1 35683U 09041C   24351.08759443  .00002015  00000+0  31115-3 0  9995
2 35683  97.8049 131.6682 0001076  97.0479 263.0853 14.74382815825804
DMC3-FM1                
1 40715U 15032A   24351.14191819  .00001617  00000+0  19795-3 0  9995
2 40715  97.7226 224.5209 0007066  62.3960 297.7972 14.84513935508561
DMC3-FM2                
1 40716U 15032B   24350.89463869  .00001647  00000+0  20150-3 0  9994
2 40716  97.7282 225.4734 0008944  65.8437 294.3712 14.84510042508527
DMC3-FM3                
1 40717U 15032C   24351.13280167  .00001644  00000+0  20148-3 0  9995
2 40717  97.7334 227.0671 0010358  62.2717 297.9548 14.84415289508565
